ONEWEB-0414             
1 50491U 21132Y   24184.56568830  .00000019  00000+0  15113-4 0  9992
2 50491  87.9147 117.7171 0002282  85.8173 274.3220 13.18686562127442
ONEWEB-0417             
1 50492U 21132Z   24184.57359721  .00000020  00000+0  18879-4 0  9995
2 50492  87.9154 117.7195 0001849  85.7969 274.3375 13.18686056127424
ONEWEB-0418             
1 50493U 21132AA  24184.50707278  .00000040  00000+0  69171-4 0  9996
2 50493  87.9153 117.7353 0001763  92.5683 267.5651 13.18685993127479
ONEWEB-0419             
1 50494U 21132AB  24184.52458746  .00000072  00000+0  14979-3 0  9992
2 50494  87.9147 117.7484 0001713  78.5566 281.5759 13.18684093127393
ONEWEB-0420             
1 50495U 21132AC  24184.56727437  .00000083  00000+0  17668-3 0  9993
2 50495  87.9147 117.7486 0002329  74.2898 285.8491 13.18686111127394
ONEWEB-0421             
1 50496U 21132AD  24184.56095908  .00000032  00000+0  47618-4 0  9998
2 50496  87.9154 117.7168 0002405  85.7883 274.3524 13.18686539127435
ONEWEB-0424             
1 50497U 21132AE  24184.51984236  .00000043  00000+0  76935-4 0  9991
2 50497  87.9151 117.7303 0001578  70.8857 289.2446 13.18685182127453
ONEWEB-0426             
1 50498U 21132AF  24184.55779342  .00000018  00000+0  12326-4 0  9992
2 50498  87.9145 117.7391 0002158  98.4019 261.7358 13.18686587128699
